     2.11           N: GPS NAV DATA                         RINEX VERSION / TYPE
teqc  2019Feb25                         20221121 12:23:23UTCPGM / RUN BY / DATE
OSX ker:10.11.6|Core i5|gcc 4.3 -m64|OSX ker:10.10+|=+      COMMENT
    7.4506D-09  2.2352D-08 -5.9605D-08 -1.1921D-07          ION ALPHA
    8.6016D+04  8.1920D+04 -1.3107D+05 -5.2429D+05          ION BETA
    7.450580596924D-09 2.753353101070D-14   503808     1532 DELTA-UTC: A0,A1,T,W
                                                            END OF HEADER
22 09  5 20 18  0  0.0 1.993011683226D-04-7.958078640513D-13 0.000000000000D+00
    2.400000000000D+01 2.590625000000D+01 5.391653155424D-09-1.851075809743D+00
    1.451000571251D-06 4.973808070645D-03 2.291053533554D-06 5.153656711578D+03
    3.240000000000D+05 2.235174179077D-08 8.108354575686D-01 5.401670932770D-08
    9.402200096516D-01 3.214375000000D+02-1.880709496128D+00-8.688576199788D-09
    1.614352958566D-10 1.000000000000D+00 1.532000000000D+03 0.000000000000D+00
    2.000000000000D+00 0.000000000000D+00-1.769512891769D-08 2.400000000000D+01
    3.168180000000D+05 4.000000000000D+00
28 09  5 20 18  0  0.0-2.491520717740D-05-2.273736754432D-13 0.000000000000D+00
    8.000000000000D+00 3.625000000000D+00 4.605548982459D-09-1.593700805064D+00
    2.104789018631D-07 1.488346664701D-02 5.129724740982D-06 5.153638154984D+03
    3.240000000000D+05 3.781169652939D-07-2.335843898234D+00 9.499490261078D-08
    9.664606433422D-01 2.830312500000D+02-2.025271091825D+00-8.054978379324D-09
    4.964492505326D-11 1.000000000000D+00 1.532000000000D+03 0.000000000000D+00
    2.000000000000D+00 0.000000000000D+00-1.071020960808D-08 8.000000000000D+00
    3.168180000000D+05 4.000000000000D+00
19 09  5 20 18  0  0.0 2.510566264391D-05-1.136868377216D-12 0.000000000000D+00
    4.700000000000D+01-2.665625000000D+01 4.501616081807D-09-2.720768508072D+00
   -1.223757863045D-06 5.580448196270D-03 1.046620309353D-05 5.153605367661D+03
    3.240000000000D+05-1.676380634308D-08-1.245364736063D+00 3.725290298462D-09
    9.571026431211D-01 1.752812500000D+02-3.639085715556D-01-7.966046103509D-09
   -3.743013054375D-10 1.000000000000D+00 1.532000000000D+03 0.000000000000D+00
    2.000000000000D+00 0.000000000000D+00-1.443549990654D-08 4.700000000000D+01
    3.168180000000D+05 4.000000000000D+00
14 09  5 20 18  0  0.0-1.076110638678D-04 5.911715561524D-12 0.000000000000D+00
    7.100000000000D+01-8.768750000000D+01 3.979451474413D-09-2.674936593960D+00
   -4.423782229424D-06 4.427723004483D-03 8.402392268181D-06 5.153608345032D+03
    3.240000000000D+05 1.601874828339D-07 1.861126535322D+00-5.960464477539D-08
    9.882175633196D-01 2.293750000000D+02-2.148393495795D+00-7.839612265604D-09
   -3.128701751558D-10 1.000000000000D+00 1.532000000000D+03 0.000000000000D+00
    2.000000000000D+00 0.000000000000D+00-9.313225746155D-09 7.100000000000D+01
    3.171960000000D+05 4.000000000000D+00
11 09  5 20 18  0  0.0-3.286171704531D-06-1.477928890381D-12 0.000000000000D+00
    8.500000000000D+01 5.796875000000D+01 5.888816721425D-09 1.264219567431D+00
    3.011897206306D-06 9.328848100267D-03 1.136958599091D-05 5.153694345474D+03
    3.240000000000D+05-7.823109626770D-08-4.841172274600D-01 8.195638656616D-08
    8.897042063571D-01 1.197500000000D+02 6.971461424780D-01-8.807866883010D-09
   -3.607293115380D-11 1.000000000000D+00 1.532000000000D+03 0.000000000000D+00
    2.000000000000D+00 0.000000000000D+00-1.164153218269D-08 8.500000000000D+01
    3.189060000000D+05 4.000000000000D+00
17 09  5 20 18  0  0.0 5.999486893415D-05 2.046363078989D-12 0.000000000000D+00
    3.300000000000D+01-4.040625000000D+01 4.385539818194D-09-2.104001435396D+00
   -2.039596438408D-06 4.502340103500D-03 9.350478649139D-06 5.153681184769D+03
    3.240000000000D+05-1.266598701477D-07-1.301460666284D+00-7.078051567078D-08
    9.593616914595D-01 1.995312500000D+02-2.646243018232D+00-7.863541833795D-09
   -3.239420649158D-10 1.000000000000D+00 1.532000000000D+03 0.000000000000D+00
    2.000000000000D+00 0.000000000000D+00-1.024454832077D-08 3.300000000000D+01
    3.191160000000D+05 4.000000000000D+00
12 09  5 20 18  0  0.0-2.784617245197D-04 5.343281372916D-12 0.000000000000D+00
    6.300000000000D+01-4.062500000000D-01 4.713767775920D-09 1.483305295379D+00
   -5.774199962616D-08 3.356711822562D-03 4.952773451805D-06 5.153650171280D+03
    3.240000000000D+05 7.636845111847D-08-2.360975049002D+00 2.048909664154D-08
    9.668253766148D-01 2.832187500000D+02-7.133266162311D-01-8.186055267774D-09
    1.071473202588D-11 1.000000000000D+00 1.532000000000D+03 0.000000000000D+00
    2.000000000000D+00 0.000000000000D+00-1.164153218269D-08 6.300000000000D+01
    3.198960000000D+05 4.000000000000D+00
26 09  5 20 17 59 44.0 6.150919944048D-05 1.136868377216D-12 0.000000000000D+00
    3.000000000000D+00-8.925000000000D+01 3.888376252193D-09 1.778204554020D+00
   -4.902482032776D-06 2.042357192840D-02 8.352100849152D-06 5.154888513565D+03
    3.239840000000D+05-3.911554813385D-07 1.878227367412D+00-3.371387720108D-07
    9.925527352569D-01 2.428750000000D+02 1.006592690683D+00-7.754251567131D-09
   -2.807259790781D-10 1.000000000000D+00 1.532000000000D+03 0.000000000000D+00
    2.000000000000D+00 0.000000000000D+00-6.519258022308D-09 3.000000000000D+00
    3.216180000000D+05 4.000000000000D+00
30 09  5 20 18  0  0.0 1.476746983826D-04 2.728484105319D-12 0.000000000000D+00
    1.480000000000D+02 2.000000000000D+00 5.124499170245D-09-1.113258919360D+00
    1.937150955200D-07 1.137654902413D-02 5.222856998444D-06 5.153587556839D+03
    3.240000000000D+05-1.061707735062D-07-2.408623756687D+00 2.272427082062D-07
    9.519057422150D-01 2.729375000000D+02 1.416480903281D+00-8.534641216350D-09
    4.035882396416D-11 1.000000000000D+00 1.532000000000D+03 0.000000000000D+00
    2.000000000000D+00 0.000000000000D+00-8.381903171539D-09 1.480000000000D+02
    3.230160000000D+05 4.000000000000D+00
32 09  5 20 18  0  0.0 2.588503994048D-04-5.229594535194D-12 0.000000000000D+00
    8.200000000000D+01 2.840625000000D+01 4.871631494435D-09 2.202148593242D+00
    1.261010766029D-06 1.332053565420D-02 2.451241016388D-06 5.153565643311D+03
    3.240000000000D+05 1.806765794754D-07 8.607217321036D-01-3.725290298462D-09
    9.641649181846D-01 3.346562500000D+02-1.166728377663D+00-8.316774998490D-09
   -1.500062483624D-11 1.000000000000D+00 1.532000000000D+03 0.000000000000D+00
    2.000000000000D+00 0.000000000000D+00-3.259629011154D-09 8.200000000000D+01
    3.232560000000D+05 4.000000000000D+00
14 09  5 20 20  0  0.0-1.075682230294D-04 5.911715561524D-12 0.000000000000D+00
    7.200000000000D+01-7.928125000000D+01 4.050168705784D-09-1.625070662145D+00
   -4.068017005920D-06 4.429010325111D-03 7.877126336098D-06 5.153604568481D+03
    3.312000000000D+05 5.587935447693D-08 1.861069673159D+00 6.519258022308D-08
    9.882159277771D-01 2.416562500000D+02-2.148040457090D+00-7.806396596324D-09
   -2.003654888840D-10 1.000000000000D+00 1.532000000000D+03 0.000000000000D+00
    2.000000000000D+00 0.000000000000D+00-9.313225746155D-09 7.200000000000D+01
    3.240180000000D+05 4.000000000000D+00
 9 09  5 20 20  0  0.0 5.687261000276D-05 1.932676241267D-12 0.000000000000D+00
    5.800000000000D+01-2.187500000000D+01 4.078384166785D-09 1.530415261539D+00
   -1.542270183563D-06 2.053128695115D-02 1.060776412487D-05 5.153641885757D+03
    3.312000000000D+05-1.527369022369D-07 2.836555293662D+00-5.457550287247D-07
    9.765167685516D-01 1.856562500000D+02 1.474810032078D+00-7.771037980638D-09
    2.810831368123D-10 1.000000000000D+00 1.532000000000D+03 0.000000000000D+00
    2.800000000000D+00 0.000000000000D+00-5.587935447693D-09 5.800000000000D+01
    3.240180000000D+05 4.000000000000D+00
22 09  5 20 20  0  0.0 1.992951147258D-04-7.958078640513D-13 0.000000000000D+00
    2.500000000000D+01 2.765625000000D+01 5.362366221220D-09-8.008232754924D-01
    1.575797796249D-06 4.974018200301D-03 2.417713403702D-06 5.153657318115D+03
    3.312000000000D+05-5.215406417847D-08 8.107726705875D-01 5.029141902924D-08
    9.402208362004D-01 3.238750000000D+02-1.880764591086D+00-8.762865008501D-09
    1.617924535908D-10 1.000000000000D+00 1.532000000000D+03 0.000000000000D+00
    2.000000000000D+00 0.000000000000D+00-1.769512891769D-08 2.500000000000D+01
    3.240180000000D+05 4.000000000000D+00
27 09  5 20 20  0  0.0 5.067698657513D-05 3.069544618484D-12 0.000000000000D+00
    7.100000000000D+01-4.593750000000D+00 4.124100356762D-09-1.344618945462D+00
    6.519258022308D-08 2.127330191433D-02 1.078099012375D-05 5.153798053741D+03
    3.312000000000D+05-1.266598701477D-07 2.812479565143D+00 5.196779966354D-07
    9.745592437214D-01 1.818750000000D+02-1.595540758094D+00-7.846041104820D-09
    2.264380034803D-10 1.000000000000D+00 1.532000000000D+03 0.000000000000D+00
    2.800000000000D+00 0.000000000000D+00-4.190951585770D-09 7.100000000000D+01
    3.240180000000D+05 4.000000000000D+00
12 09  5 20 20  0  0.0-2.784230746329D-04 5.343281372916D-12 0.000000000000D+00
    8.400000000000D+01 5.625000000000D+00 4.721982403806D-09 2.533179128416D+00
    3.483146429062D-07 3.356363857165D-03 5.396082997322D-06 5.153652299881D+03
    3.312000000000D+05 6.332993507385D-08-2.361034139189D+00 9.499490261078D-08
    9.668255112033D-01 2.775312500000D+02-7.130044670408D-01-8.181055059496D-09
    5.071639825584D-11 1.000000000000D+00 1.532000000000D+03 0.000000000000D+00
    2.000000000000D+00 0.000000000000D+00-1.164153218269D-08 8.400000000000D+01
    3.240180000000D+05 4.000000000000D+00
